{
  "type": "FeatureCollection",
  "features": [
    {
      "type": "Feature",
      "properties": {
        "norad_id": 33901,
        "name": "COSMOS 2251 DEB",
        "group": "cosmos-2251-debris",
        "lat": -12.838080611988323,
        "lon": 36.03290173952613,
        "alt_km": 542.1412131985371,
        "timestamp": "2025-12-17T04:57:44.753869+00:00",
        "meta_object_name": "COSMOS 2251 DEB",
        "meta_object_id": "1993-036DE",
        "meta_epoch": "2025-12-16T13:11:16.563264",
        "meta_mean_motion": 15.16370583,
        "meta_eccentricity": 0.00310166,
        "meta_inclination": 73.7745,
        "meta_ra_of_asc_node": 41.2295,
        "meta_arg_of_pericenter": 173.0876,
        "meta_mean_anomaly": 187.0752,
        "meta_ephemeris_type": 0,
        "meta_classification_type": "U",
        "meta_norad_cat_id": 33901,
        "meta_element_set_no": 999,
        "meta_rev_at_epoch": 89571,
        "meta_bstar": 0.0022462584,
        "meta_mean_motion_dot": 0.00044376,
        "meta_mean_motion_ddot": 0,
        "tle_line1": "1 33901U 93036DE  25350.54949726  .00044376  00000+0  22463-2 0  9990",
        "tle_line2": "2 33901  73.7745  41.2295 0031016 173.0876 187.0752 15.16370583895716"
      },
      "geometry": {
        "type": "Point",
        "coordinates": [
          36.03290173952613,
          -12.838080611988323
        ]
      }
    },
    {
      "type": "Feature",
      "properties": {
        "norad_id": 33905,
        "name": "COSMOS 2251 DEB",
        "group": "cosmos-2251-debris",
        "lat": -24.224635281913613,
        "lon": 135.8500252380849,
        "alt_km": 737.3311942185737,
        "timestamp": "2025-12-17T04:57:44.753878+00:00",
        "meta_object_name": "COSMOS 2251 DEB",
        "meta_object_id": "1993-036DJ",
        "meta_epoch": "2025-12-15T22:11:28.020768",
        "meta_mean_motion": 14.35398798,
        "meta_eccentricity": 0.00586866,
        "meta_inclination": 73.887,
        "meta_ra_of_asc_node": 310.7489,
        "meta_arg_of_pericenter": 199.6032,
        "meta_mean_anomaly": 222.7358,
        "meta_ephemeris_type": 0,
        "meta_classification_type": "U",
        "meta_norad_cat_id": 33905,
        "meta_element_set_no": 999,
        "meta_rev_at_epoch": 87733,
        "meta_bstar": 0.00049785438,
        "meta_mean_motion_dot": 1.43e-05,
        "meta_mean_motion_ddot": 0,
        "tle_line1": "1 33905U 93036DJ  25349.92462987  .00001430  00000+0  49785-3 0  9994",
        "tle_line2": "2 33905  73.8870 310.7489 0058686 199.6032 222.7358 14.35398798877334"
      },
      "geometry": {
        "type": "Point",
        "coordinates": [
          135.8500252380849,
          -24.224635281913613
        ]
      }
    },
    {
      "type": "Feature",
      "properties": {
        "norad_id": 33906,
        "name": "COSMOS 2251 DEB",
        "group": "cosmos-2251-debris",
        "lat": 70.93953117527093,
        "lon": 8.963597788924737,
        "alt_km": 698.5468421620717,
        "timestamp": "2025-12-17T04:57:44.753887+00:00",
        "meta_object_name": "COSMOS 2251 DEB",
        "meta_object_id": "1993-036DK",
        "meta_epoch": "2025-12-16T23:56:17.597760",
        "meta_mean_motion": 14.57165073,
        "meta_eccentricity": 0.00367903,
        "meta_inclination": 74.03,
        "meta_ra_of_asc_node": 313.3826,
        "meta_arg_of_pericenter": 342.1847,
        "meta_mean_anomaly": 79.1722,
        "meta_ephemeris_type": 0,
        "meta_classification_type": "U",
        "meta_norad_cat_id": 33906,
        "meta_element_set_no": 999,
        "meta_rev_at_epoch": 88070,
        "meta_bstar": 0.001523442,
        "meta_mean_motion_dot": 6.915e-05,
        "meta_mean_motion_ddot": 0,
        "tle_line1": "1 33906U 93036DK  25350.99742590  .00006915  00000+0  15234-2 0  9999",
        "tle_line2": "2 33906  74.0300 313.3826 0036790 342.1847  79.1722 14.57165073880707"
      },
      "geometry": {
        "type": "Point",
        "coordinates": [
          8.963597788924737,
          70.93953117527093
        ]
      }
    },
    {
      "type": "Feature",
      "properties": {
        "norad_id": 33907,
        "name": "COSMOS 2251 DEB",
        "group": "cosmos-2251-debris",
        "lat": -16.506224150594168,
        "lon": 20.684449215423506,
        "alt_km": 803.0015396498484,
        "timestamp": "2025-12-17T04:57:44.753896+00:00",
        "meta_object_name": "COSMOS 2251 DEB",
        "meta_object_id": "1993-036DL",
        "meta_epoch": "2025-12-16T12:48:34.098336",
        "meta_mean_motion": 14.30539992,
        "meta_eccentricity": 0.01119596,
        "meta_inclination": 74.0704,
        "meta_ra_of_asc_node": 26.7612,
        "meta_arg_of_pericenter": 81.1094,
        "meta_mean_anomaly": 38.3591,
        "meta_ephemeris_type": 0,
        "meta_classification_type": "U",
        "meta_norad_cat_id": 33907,
        "meta_element_set_no": 999,
        "meta_rev_at_epoch": 86634,
        "meta_bstar": 0.0012771133,
        "meta_mean_motion_dot": 3.542e-05,
        "meta_mean_motion_ddot": 0,
        "tle_line1": "1 33907U 93036DL  25350.53372799  .00003542  00000+0  12771-2 0  9996",
        "tle_line2": "2 33907  74.0704  26.7612 0111959  81.1094  38.3591 14.30539992866340"
      },
      "geometry": {
        "type": "Point",
        "coordinates": [
          20.684449215423506,
          -16.506224150594168
        ]
      }
    },
    {
      "type": "Feature",
      "properties": {
        "norad_id": 33908,
        "name": "COSMOS 2251 DEB",
        "group": "cosmos-2251-debris",
        "lat": 3.239593521553319,
        "lon": -161.22015128701045,
        "alt_km": 998.0231264382946,
        "timestamp": "2025-12-17T04:57:44.753905+00:00",
        "meta_object_name": "COSMOS 2251 DEB",
        "meta_object_id": "1993-036DM",
        "meta_epoch": "2025-12-16T22:07:19.035840",
        "meta_mean_motion": 14.07373044,
        "meta_eccentricity": 0.02227646,
        "meta_inclination": 73.8374,
        "meta_ra_of_asc_node": 198.3449,
        "meta_arg_of_pericenter": 221.0942,
        "meta_mean_anomaly": 137.3234,
        "meta_ephemeris_type": 0,
        "meta_classification_type": "U",
        "meta_norad_cat_id": 33908,
        "meta_element_set_no": 999,
        "meta_rev_at_epoch": 85532,
        "meta_bstar": 0.0015259839,
        "meta_mean_motion_dot": 3.191e-05,
        "meta_mean_motion_ddot": 0,
        "tle_line1": "1 33908U 93036DM  25350.92174810  .00003191  00000+0  15260-2 0  9990",
        "tle_line2": "2 33908  73.8374 198.3449 0222764 221.0942 137.3234 14.07373044855327"
      },
      "geometry": {
        "type": "Point",
        "coordinates": [
          -161.22015128701045,
          3.239593521553319
        ]
      }
    },
    {
      "type": "Feature",
      "properties": {
        "norad_id": 33911,
        "name": "COSMOS 2251 DEB",
        "group": "cosmos-2251-debris",
        "lat": 41.64064544165021,
        "lon": -41.53710229899172,
        "alt_km": 634.5893882109749,
        "timestamp": "2025-12-17T04:57:44.753914+00:00",
        "meta_object_name": "COSMOS 2251 DEB",
        "meta_object_id": "1993-036DQ",
        "meta_epoch": "2025-12-16T12:19:27.835104",
        "meta_mean_motion": 14.74948598,
        "meta_eccentricity": 0.00141449,
        "meta_inclination": 74.0899,
        "meta_ra_of_asc_node": 154.5037,
        "meta_arg_of_pericenter": 92.4217,
        "meta_mean_anomaly": 324.165,
        "meta_ephemeris_type": 0,
        "meta_classification_type": "U",
        "meta_norad_cat_id": 33911,
        "meta_element_set_no": 999,
        "meta_rev_at_epoch": 88700,
        "meta_bstar": 0.0014509711,
        "meta_mean_motion_dot": 9.748e-05,
        "meta_mean_motion_ddot": 0,
        "tle_line1": "1 33911U 93036DQ  25350.51351661  .00009748  00000+0  14510-2 0  9991",
        "tle_line2": "2 33911  74.0899 154.5037 0014144  92.4217 324.1650 14.74948598887003"
      },
      "geometry": {
        "type": "Point",
        "coordinates": [
          -41.53710229899172,
          41.64064544165021
        ]
      }
    },
    {
      "type": "Feature",
      "properties": {
        "norad_id": 33912,
        "name": "COSMOS 2251 DEB",
        "group": "cosmos-2251-debris",
        "lat": 12.817146462767408,
        "lon": -174.95479796206942,
        "alt_km": 723.4043621474275,
        "timestamp": "2025-12-17T04:57:44.753932+00:00",
        "meta_object_name": "COSMOS 2251 DEB",
        "meta_object_id": "1993-036DR",
        "meta_epoch": "2025-12-16T22:49:14.026656",
        "meta_mean_motion": 14.51918638,
        "meta_eccentricity": 0.00114126,
        "meta_inclination": 74.0328,
        "meta_ra_of_asc_node": 181.7923,
        "meta_arg_of_pericenter": 260.6615,
        "meta_mean_anomaly": 215.5914,
        "meta_ephemeris_type": 0,
        "meta_classification_type": "U",
        "meta_norad_cat_id": 33912,
        "meta_element_set_no": 999,
        "meta_rev_at_epoch": 88494,
        "meta_bstar": 0.00056247411,
        "meta_mean_motion_dot": 2.243e-05,
        "meta_mean_motion_ddot": 0,
        "tle_line1": "1 33912U 93036DR  25350.95085679  .00002243  00000+0  56247-3 0  9990",
        "tle_line2": "2 33912  74.0328 181.7923 0011412 260.6615 215.5914 14.51918638884946"
      },
      "geometry": {
        "type": "Point",
        "coordinates": [
          -174.95479796206942,
          12.817146462767408
        ]
      }
    }
  ]
}